OBJECT_NAME,OBJECT_ID,EPOCH,MEAN_MOTION,ECCENTRICITY,INCLINATION,RA_OF_ASC_NODE,ARG_OF_PERICENTER,MEAN_ANOMALY,EPHEMERIS_TYPE,CLASSIFICATION_TYPE,NORAD_CAT_ID,ELEMENT_SET_NO,REV_AT_EPOCH,BSTAR,MEAN_MOTION_DOT,MEAN_MOTION_DDOT
TEVEL2-2,2025-052K,2026-07-12T03:47:19.518720,15.34716519,.00045323,97.3850,89.1247,66.8896,293.2824,0,U,63219,999,7392,.30803975E-3,.10291E-3,0
TEVEL2-9,2025-052AD,2026-07-12T04:02:01.951296,15.32670115,.00079021,97.3918,88.4550,65.0146,295.1916,0,U,63237,999,7385,.30008574E-3,.9399E-4,0
TEVEL2-7,2025-052AE,2026-07-12T03:34:02.395776,15.32354538,.00079853,97.3916,88.3405,65.2305,294.9767,0,U,63238,999,7384,.29902657E-3,.9273E-4,0
TEVEL2-8,2025-052AF,2026-07-12T03:46:16.213440,15.32340401,.00080828,97.3920,88.3251,66.3395,293.8694,0,U,63239,999,7384,.29456705E-3,.913E-4,0
FORESAIL-1 PRIME,2025-276DS,2026-07-12T03:55:56.677152,15.18922403,.00031233,97.4195,265.9794,51.5125,308.6390,0,U,66778,999,3419,.14066162E-3,.2869E-4,0
